{
    "links": {
        "self": "http://www.neowsapp.com/rest/v1/neo/3842883?api_key=iIulBulltgU6a56xZRHN4H3l9WmuAYTsLGpBGhQ2"
    },
    "id": "3842883",
    "neo_reference_id": "3842883",
    "name": "(2019 LH5)",
    "designation": "2019 LH5",
    "nasa_jpl_url": "http://ssd.jpl.nasa.gov/sbdb.cgi?sstr=3842883",
    "absolute_magnitude_h": 20.5,
    "estimated_diameter": {
        "kilometers": {
            "estimated_diameter_min": 0.2111324448,
            "estimated_diameter_max": 0.4721064988
        },
        "meters": {
            "estimated_diameter_min": 211.1324447897,
            "estimated_diameter_max": 472.1064988055
        },
        "miles": {
            "estimated_diameter_min": 0.1311915784,
            "estimated_diameter_max": 0.2933532873
        },
        "feet": {
            "estimated_diameter_min": 692.6917701639,
            "estimated_diameter_max": 1548.9058855411
        }
    },
    "is_potentially_hazardous_asteroid": true,
    "close_approach_data": [
        {
            "close_approach_date": "1968-06-28",
            "close_approach_date_full": "1968-Jun-28 11:44",
            "epoch_date_close_approach": -47650560000,
            "relative_velocity": {
                "kilometers_per_second": "26.927295495",
                "kilometers_per_hour": "96938.2637820691",
                "miles_per_hour": "60233.6672928084"
            },
            "miss_distance": {
                "astronomical": "0.130962769",
                "lunar": "50.944517141",
                "kilometers": "19591751.29170203",
                "miles": "12173749.748386814"
            },
            "orbiting_body": "Earth"
        },
        {
            "close_approach_date": "2019-06-20",
            "close_approach_date_full": "2019-Jun-20 00:38",
            "epoch_date_close_approach": 1560991080000,
            "relative_velocity": {
                "kilometers_per_second": "32.8418796296",
                "kilometers_per_hour": "118230.7666664984",
                "miles_per_hour": "73464.000543414"
            },
            "miss_distance": {
                "astronomical": "0.3273595999",
                "lunar": "127.3428843611",
                "kilometers": "48972298.869092213",
                "miles": "30429975.4605420194"
            },
            "orbiting_body": "Earth"
        }
    ],
    "orbital_data": {
        "orbit_id": "1",
        "orbit_determination_date": "2019-06-18 11:42:34",
        "first_observation_date": "2019-06-06",
        "last_observation_date": "2019-06-15",
        "data_arc_in_days": 9,
        "observations_used": 36,
        "orbit_uncertainty": "9",
        "minimum_orbit_intersection": ".0109224",
        "jupiter_tisserand_invariant": "3.857",
        "epoch_osculation": "2458643.5",
        "eccentricity": ".7213101232390311",
        "semi_major_axis": "1.696462905403067",
        "inclination": "3.035077603100325",
        "ascending_node_longitude": "121.2788007774239",
        "orbital_period": "807.077014250744",
        "perihelion_distance": ".472787038036336",
        "perihelion_argument": "268.0681277221576",
        "aphelion_distance": "2.920138772769798",
        "perihelion_time": "2458699.579487079764",
        "mean_anomaly": "334.9855156419524",
        "mean_motion": ".4460540860951278",
        "equinox": "J2000",
        "orbit_class": {
            "orbit_class_type": "APO",
            "orbit_class_description": "Near-Earth asteroid orbits which cross the Earth’s orbit similar to that of 1862 Apollo",
            "orbit_class_range": "a (semi-major axis) > 1.0 AU; q (perihelion) < 1.017 AU"
        }
    },
    "is_sentry_object": false
}